[["observe", {"vessel_name": "#autoLOC_501232", "vessel_type": "VesselSituation.orbiting", "vessel_situation": "VesselSituation.orbiting", "mission_time": 1762047981.396035, "universal_time": 81134.92998109081, "current_body": "Kerbin", "position": {"x": 0.0, "y": 0.0, "z": 0.0}, "velocity": {"x": 0.0, "y": 0.0, "z": 0.0}, "altitude": 789974.2350380167, "surface_altitude": 789920.8459105578, "speed": 0.0, "vertical_speed": 0, "g_force": 0, "orbit_parameters": {"apoapsis_altitude": 5313422.936085726, "periapsis_altitude": 79714.46700464399, "inclination": 0.0026782837565158335, "eccentricity": 0.7938115269109833, "period": 0, "time_to_apoapsis": 0, "time_to_periapsis": 0}, "resources": {"LiquidFuel": {"amount": 720.0, "max": 5040.0}, "ElectricCharge": {"amount": 948.4337768554688, "max": 950.0}}, "vessel_status": {"mass": 28004.99609375, "dry_mass": 0, "thrust": 0.0, "available_thrust": 1500000.0, "max_thrust": 1500000.0, "specific_impulse": 0, "control_state": {"throttle": 0.0, "sas": false, "rcs": false, "gear": false, "lights": false, "brakes": false}}, "mechjeb_status": {"api_ready": true, "ascent_status": "Off"}, "part_status": {"part_count": 28, "stage_count": 0, "current_stage": 4}, "nearby_vessels": [], "comprehensive_telemetry": {"timestamp": 1762047981.487338, "basic_vessel": {"name": "#autoLOC_501232", "type": "VesselType.ship", "situation": "VesselSituation.orbiting", "mass": 28004.99609375, "dry_mass": 19485.0, "crew_count": 3, "crew_capacity": 3, "biome": "Water", "recoverable": false, "met": 80969.6299810908}, "performance": {"thrust": 0.0, "max_thrust": 1500000.0, "max_vacuum_thrust": 1500000.0, "specific_impulse": 310.0, "kerbin_sea_level_specific_impulse": 285.0, "vacuum_specific_impulse": 310.0}, "torque": {"available_control_surface_torque": [[0.0, 0.0, 0.0], [0.0, 0.0, 0.0]], "available_engine_torque": [[0.0, 0.0, 0.0], [0.0, 0.0, 0.0]], "available_rcs_torque": [[0.0, 0.0, 0.0], [0.0, 0.0, 0.0]], "available_reaction_wheel_torque": [[15000.0, 15000.0, 15000.0], [-15000.0, -15000.0, -15000.0]], "available_thrust": 0.0, "available_torque": [[15000.0, 15000.0, 15000.0], [-15000.0, -15000.0, -15000.0]]}, "position_velocity": {"position_vessel": [-0.0, 0.0, 0.0], "velocity_vessel": [-0.0, 0.0, 0.0], "position_orbital": [0.0, 0.0, 0.0], "velocity_orbital": [0.0, 0.0, 0.0], "position_surface": [0.0, 0.0, 0.0], "velocity_surface": [0.0, 0.0, 0.0], "speed": 0.0, "horizontal_speed": 0.0, "vertical_speed": 0.0, "equivalent_air_speed": 0.0, "true_air_speed": 1721.668701171875, "terminal_velocity": Infinity}, "altitude_location": {"mean_altitude": 790054.3180557003, "surface_altitude": 790054.3180557003, "bedrock_altitude": 791221.0555482127, "latitude": 0.07591069979838601, "longitude": 134.21337678036423, "elevation": -1166.737492512446}, "aerodynamics": {"atmosphere_density": 0.0, "dynamic_pressure": 0.0, "static_pressure": 0.0, "static_pressure_at_msl": 101325.0, "drag": [-4.706126893872467e-06, -1.2251694162160222e-08, -3.834512767695629e-06], "lift": [-2.515082179477371e-05, -1.9642396512059456e-05, 3.09305558936322e-05], "mach": 0.0, "drag_coefficient": null, "lift_coefficient": null, "ballistic_coefficient": null, "reynolds_number": null}, "orientation": {"heading": 292.5509338378906, "pitch": -3.3067967891693115, "roll": -166.99815368652344, "direction": [-0.05768241957421614, 0.38286597868643785, -0.9220012911252023], "rotation": [0.44937454773056934, -0.5302135607566126, 0.3264668618357306, -0.6405899750354759], "angle_of_attack": 44.45889663696289, "sideslip_angle": -4.093247890472412}, "flight_dynamics": {"g_force": 7.795147394062951e-05, "center_of_mass": [0.0, 0.0, 0.0], "aerodynamic_force": [-2.875710100455817e-05, -2.362904170375426e-05, 2.5765552498737954e-05], "thrust_specific_fuel_consumption": null, "stall_fraction": null}, "reference_vectors": {"prograde": [0.6665329704864157, 0.0017351697295250339, 0.7454735330248583], "retrograde": [-0.6665329704864157, -0.0017351697295250339, -0.7454735330248583], "normal": [7.149229125369416e-14, 0.9999972911328477, -0.002327601118429703], "anti_normal": [-7.149229125369416e-14, -0.9999972911328477, 0.002327601118429703], "radial": [0.745475552419095, -0.0015514228876277493, -0.6665311649371461], "anti_radial": [-0.745475552419095, 0.0015514228876277493, 0.6665311649371461]}, "reference_frames": {"reference_frames": {"vessel": {"position": [-0.0, 0.0, 0.0], "velocity": [-0.0, 0.0, 0.0], "description": "Vessel-relative coordinates (X=right, Y=forward, Z=up)"}, "orbital": {"position": [0.0, 0.0, 0.0], "velocity": [0.0, 0.0, 0.0], "description": "Orbital coordinates (X=anti-radial, Y=prograde, Z=normal)"}, "surface": {"position": [0.0, 0.0, 0.0], "velocity": [0.0, 0.0, 0.0], "description": "Surface coordinates (X=zenith, Y=north, Z=east)"}}, "coordinate_systems": {"vessel_available": true, "orbital_available": true, "surface_available": true}}, "orbital": {"semi_major_axis": 3296568.701459681, "semi_minor_axis": 2004853.8897079772, "eccentricity": 0.7938115269045402, "inclination": 0.0026782837598030612, "longitude_of_ascending_node": 1.9196518657742285, "argument_of_periapsis": 5.074465179606128, "mean_anomaly": 0.21084986331613476, "eccentric_anomaly": 0.7546204423969818, "true_anomaly": 1.7262294191210374, "apoapsis": 5913422.935911108, "periapsis": 679714.4670082544, "apoapsis_altitude": 5313422.935911108, "periapsis_altitude": 79714.46700825437, "period": 20011.853310251077, "orbital_speed": 2061.560780317121, "speed": 2002.435866214589, "radius": 1390107.7062851659, "time_to_apoapsis": 9334.372924194271, "time_to_periapsis": 19340.29957931981, "time_to_soi_change": NaN, "epoch": 81134.98998109128, "mean_anomaly_at_epoch": 0.21084986331613476, "body_name": "Kerbin"}, "control": {"pitch": 0.0, "yaw": 0.0, "roll": 0.0, "throttle": 0.0, "forward": -0.0, "up": 0.0, "right": -0.0, "sas": false, "rcs": false, "brakes": false, "gear": false, "lights": false, "abort": false, "custom_axis01": 0.0, "custom_axis02": 0.0, "custom_axis03": 0.0, "custom_axis04": 0.0, "wheel_steering": 0.0, "wheel_throttle": 0.0, "state": "ControlState.full", "source": "ControlSource.kerbal", "current_stage": 4, "stage_lock": false, "sas_mode": "SASMode.stability_assist", "input_mode": "ControlInputMode.additive"}, "resources": {"ElectricCharge": {"amount": 948.4391479492188, "max": 950.0, "flow_mode": null, "density": null}, "MonoPropellant": {"amount": 30.0, "max": 30.0, "flow_mode": null, "density": null}, "Ablator": {"amount": 399.99639892578125, "max": 800.0, "flow_mode": null, "density": null}, "LiquidFuel": {"amount": 720.0, "max": 5040.0, "flow_mode": null, "density": null}, "Oxidizer": {"amount": 880.0, "max": 6160.0, "flow_mode": null, "density": null}}}, "execution_time": 0.04375123977661133}]]